{"type": "FeatureCollection", "features": [{"type": "Feature", "properties": {"norad_id": 66646, "name": "CZ-2F R/B", "group": "stations", "lat": 19.38299567607229, "lon": -119.08812822301569, "alt_km": 186.39398297705793, "timestamp": "2025-12-01T03:58:50.074166+00:00", "meta": {"OBJECT_NAME": "CZ-2F R/B", "OBJECT_ID": "2025-272B", "EPOCH": "2025-11-26T11:17:54.506400", "MEAN_MOTION": 16.01945612, "ECCENTRICITY": 0.01210796, "INCLINATION": 41.4431, "RA_OF_ASC_NODE": 114.9009, "ARG_OF_PERICENTER": 133.7676, "MEAN_ANOMALY": 227.3272, "EPHEMERIS_TYPE": 0, "CLASSIFICATION_TYPE": "U", "NORAD_CAT_ID": 66646, "ELEMENT_SET_NO": 999, "REV_AT_EPOCH": 21, "BSTAR": 0.00029319366, "MEAN_MOTION_DOT": 0.00449059, "MEAN_MOTION_DDOT": 7.567612e-06, "GROUP": "stations"}, "tle": {"line1": "1 66646U 25272B   25330.47076975  .00449059  75676-5  29319-3 0  9998", "line2": "2 66646  41.4431 114.9009 0121079 133.7676 227.3272 16.01945612   217"}}, "geometry": {"type": "Point", "coordinates": [-119.08812822301569, 19.38299567607229]}}, {"type": "Feature", "properties": {"norad_id": 49271, "name": "FREGAT DEB", "group": "stations", "lat": 31.37695108696404, "lon": -97.44898397476791, "alt_km": 2150.6739120840384, "timestamp": "2025-12-01T03:58:50.074220+00:00", "meta": {"OBJECT_NAME": "FREGAT DEB", "OBJECT_ID": "2011-037PF", "EPOCH": "2025-11-30T02:27:10.897344", "MEAN_MOTION": 12.34314267, "ECCENTRICITY": 0.08699853, "INCLINATION": 51.6202, "RA_OF_ASC_NODE": 236.7991, "ARG_OF_PERICENTER": 196.4494, "MEAN_ANOMALY": 160.6386, "EPHEMERIS_TYPE": 0, "CLASSIFICATION_TYPE": "U", "NORAD_CAT_ID": 49271, "ELEMENT_SET_NO": 999, "REV_AT_EPOCH": 20037, "BSTAR": 0.014225513, "MEAN_MOTION_DOT": 6.404e-05, "MEAN_MOTION_DDOT": 0, "GROUP": "stations"}, "tle": {"line1": "1 49271U 11037PF  25334.10220946  .00006404  00000+0  14226-1 0  9995", "line2": "2 49271  51.6202 236.7991 0869985 196.4494 160.6386 12.34314267200375"}}, "geometry": {"type": "Point", "coordinates": [-97.44898397476791, 31.37695108696404]}}, {"type": "Feature", "properties": {"norad_id": 66052, "name": "HRC MONOBLOCK CAMERA", "group": "stations", "lat": 13.895891300834577, "lon": 7.861367816726004, "alt_km": 403.773714477823, "timestamp": "2025-12-01T03:58:50.074249+00:00", "meta": {"OBJECT_NAME": "HRC MONOBLOCK CAMERA", "OBJECT_ID": "1998-067XR", "EPOCH": "2025-11-30T08:45:13.490208", "MEAN_MOTION": 15.5298676, "ECCENTRICITY": 0.00045696, "INCLINATION": 51.6305, "RA_OF_ASC_NODE": 203.1547, "ARG_OF_PERICENTER": 134.7899, "MEAN_ANOMALY": 225.3463, "EPHEMERIS_TYPE": 0, "CLASSIFICATION_TYPE": "U", "NORAD_CAT_ID": 66052, "ELEMENT_SET_NO": 999, "REV_AT_EPOCH": 691, "BSTAR": 0.00058422747, "MEAN_MOTION_DOT": 0.00036812, "MEAN_MOTION_DDOT": 0, "GROUP": "stations"}, "tle": {"line1": "1 66052U 98067XR  25334.36473947  .00036812  00000+0  58423-3 0  9993", "line2": "2 66052  51.6305 203.1547 0004569 134.7899 225.3463 15.52986760  6918"}}, "geometry": {"type": "Point", "coordinates": [7.861367816726004, 13.895891300834577]}}, {"type": "Feature", "properties": {"norad_id": 66515, "name": "SZ-21 MODULE", "group": "stations", "lat": 24.77049377850784, "lon": 118.09596519411114, "alt_km": 382.08079688005364, "timestamp": "2025-12-01T03:58:50.074265+00:00", "meta": {"OBJECT_NAME": "SZ-21 MODULE", "OBJECT_ID": "2025-246C", "EPOCH": "2025-11-30T18:36:14.596416", "MEAN_MOTION": 15.61627193, "ECCENTRICITY": 0.0005518, "INCLINATION": 41.4762, "RA_OF_ASC_NODE": 88.9853, "ARG_OF_PERICENTER": 188.5399, "MEAN_ANOMALY": 171.5347, "EPHEMERIS_TYPE": 0, "CLASSIFICATION_TYPE": "U", "NORAD_CAT_ID": 66515, "ELEMENT_SET_NO": 999, "REV_AT_EPOCH": 257, "BSTAR": 0.00032879, "MEAN_MOTION_DOT": 0.00028896, "MEAN_MOTION_DDOT": 0, "GROUP": "stations"}, "tle": {"line1": "1 66515U 25246C   25334.77516894  .00028896  00000+0  32879-3 0  9990", "line2": "2 66515  41.4762  88.9853 0005518 188.5399 171.5347 15.61627193  2575"}}, "geometry": {"type": "Point", "coordinates": [118.09596519411114, 24.77049377850784]}}]}